H1 CPF 01  gfz 2021 10 20 00  7923 terrasarx 
H2 0702601  6201 31698    2021 10 19 12 59 42 2021 10 24 00 00 42   120 1 1  0 0 0
H9
10 0 59510  15822.000000  0   -4119032.753  -1096362.601   5401430.747
10 0 59510  15942.000000  0   -3461917.138   -692350.248   5904762.285
10 0 59510  16062.000000  0   -2737284.170   -288340.495   6304259.333
10 0 59510  16182.000000  0   -1957875.608    107540.725   6592938.021
10 0 59510  16302.000000  0   -1137515.213    487546.720   6765758.229
10 0 59510  16422.000000  0    -290861.648    844459.668   6819705.972
10 0 59510  16542.000000  0     566853.447   1171726.567   6753842.246
10 0 59510  16662.000000  0    1420098.429   1463579.234   6569318.397
10 0 59510  16782.000000  0    2253322.014   1715136.305   6269356.902
10 0 59510  16902.000000  0    3051235.918   1922484.942   5859198.800
10 0 59510  17022.000000  0    3799097.319   2082742.068   5346018.142
10 0 59510  17142.000000  0    4482984.409   2194093.605   4738801.926
10 0 59510  17262.000000  0    5090060.273   2255812.200   4048199.692
10 0 59510  17382.000000  0    5608823.883   2268252.112   3286341.754
10 0 59510  17502.000000  0    6029336.522   2232819.399   2466624.815
10 0 59510  17622.000000  0    6343419.892   2151920.793   1603476.578
10 0 59510  17742.000000  0    6544823.874   2028890.489    712096.821
10 0 59510  17862.000000  0    6629355.460   1867896.401   -191817.599
10 0 59510  17982.000000  0    6594966.444   1673829.949  -1092358.512
10 0 59510  18102.000000  0    6441797.000   1452180.089  -1973694.267
10 0 59510  18222.000000  0    6172178.445   1208895.530  -2820354.903
10 0 59510  18342.000000  0    5790590.027    950239.111  -3617510.186
10 0 59510  18462.000000  0    5303573.014    682638.500  -4351231.568
10 0 59510  18582.000000  0    4719605.438    412536.713  -5008733.970
10 0 59510  18702.000000  0    4048942.274    146246.059  -5578592.134
10 0 59510  18822.000000  0    3303425.719   -110190.711  -6050930.313
10 0 59510  18942.000000  0    2496268.620   -351129.645  -6417583.828
10 0 59510  19062.000000  0    1641815.850   -571443.180  -6672228.111
10 0 59510  19182.000000  0     755290.555   -766623.850  -6810477.502
10 0 59510  19302.000000  0    -147474.552   -932872.252  -6829953.457
10 0 59510  19422.000000  0   -1050314.147  -1067167.724  -6730319.748
10 0 59510  19542.000000  0   -1937012.659  -1167321.802  -6513288.349
10 0 59510  19662.000000  0   -2791589.519  -1232013.129  -6182592.706
10 0 59510  19782.000000  0   -3598580.360  -1260803.597  -5743929.640
10 0 59510  19902.000000  0   -4343314.266  -1254136.036  -5204873.012
10 0 59510  20022.000000  0   -5012182.876  -1213312.592  -4574754.217
10 0 59510  20142.000000  0   -5592893.939  -1140454.352  -3864511.739
10 0 59510  20262.000000  0   -6074706.225  -1038442.735  -3086511.308
10 0 59510  20382.000000  0   -6448640.041   -910843.375  -2254337.091
10 0 59510  20502.000000  0   -6707656.969   -761813.869  -1382557.470
10 0 59510  20622.000000  0   -6846805.136   -595997.856   -486469.202
10 0 59510  20742.000000  0   -6863324.224   -418405.984    418176.801
10 0 59510  20862.000000  0   -6756706.109   -234288.230   1315459.054
10 0 59510  20982.000000  0   -6528711.841    -49001.539   2189574.395
10 0 59510  21102.000000  0   -6183342.045    132124.979   3025125.607
10 0 59510  21222.000000  0   -5726761.884    303923.710   3807401.020
10 0 59510  21342.000000  0   -5167182.396    461517.343   4522639.187
10 0 59510  21462.000000  0   -4514702.576    600439.188   5158273.249
10 0 59510  21582.000000  0   -3781116.771    716742.854   5703150.196
10 0 59510  21702.000000  0   -2979692.653    807098.492   6147723.521
10 0 59510  21822.000000  0   -2124923.306    868873.033   6484215.798
10 0 59510  21942.000000  0   -1232258.969    900194.283   6706749.314
10 0 59510  22062.000000  0    -317823.973    899996.886   6811441.621
10 0 59510  22182.000000  0     601874.548    868049.142   6796468.103
10 0 59510  22302.000000  0    1510243.367    804960.797   6662091.506
10 0 59510  22422.000000  0    2390901.215    712171.837   6410657.739
10 0 59510  22542.000000  0    3227973.487    591921.982   6046558.155
10 0 59510  22662.000000  0    4006380.364    447201.343   5576157.890
10 0 59510  22782.000000  0    4712111.821    281683.272   5007690.200
10 0 59510  22902.000000  0    5332485.335     99639.612   4351118.687
10 0 59510  23022.000000  0    5856382.577    -94159.034   3617968.136
10 0 59510  23142.000000  0    6274459.294   -294555.400   2821124.794
10 0 59510  23262.000000  0    6579322.431   -496128.702   1974608.705
10 0 59510  23382.000000  0    6765668.585   -693326.853   1093323.803
10 0 59510  23502.000000  0    6830383.707   -880602.729    192790.497
10 0 59510  23622.000000  0    6772599.766  -1052551.617   -711136.238
10 0 59510  23742.000000  0    6593703.868  -1204046.897  -1602555.617
10 0 59510  23862.000000  0    6297302.520  -1330369.570  -2465809.012
10 0 59510  23982.000000  0    5889141.082  -1427328.783  -3285761.474
10 0 59510  24102.000000  0    5376982.101  -1491370.303  -4048070.285
10 0 59510  24222.000000  0    4770445.966  -1519669.862  -4739435.492
10 0 59510  24342.000000  0    4080819.009  -1510209.928  -5347828.084
10 0 59510  24462.000000  0    3320833.048  -1461839.106  -5862692.355
10 0 59510  24582.000000  0    2504422.443  -1374312.141  -6275118.568
10 0 59510  24702.000000  0    1646465.353  -1248309.544  -6577986.156
10 0 59510  24822.000000  0     762511.937  -1085437.644  -6766076.119
10 0 59510  24942.000000  0    -131494.489   -888209.959  -6836151.480
10 0 59510  25062.000000  0   -1019499.502   -660008.807  -6787006.527
10 0 59510  25182.000000  0   -1885619.072   -405028.585  -6619485.709
10 0 59510  25302.000000  0   -2714417.669   -128200.465  -6336469.916
10 0 59510  25422.000000  0   -3491176.833    164899.231  -5942831.628
10 0 59510  25542.000000  0   -4202153.502    468156.779  -5445361.168
10 0 59510  25662.000000  0   -4834824.517    775042.903  -4852660.062
10 0 59510  25782.000000  0   -5378111.877   1078746.760  -4175004.858
10 0 59510  25902.000000  0   -5822586.176   1372321.548  -3424179.598
10 0 59510  26022.000000  0   -6160641.031   1648836.964  -2613278.562
10 0 59510  26142.000000  0   -6386635.451   1901535.247  -1756482.604
10 0 59510  26262.000000  0   -6497000.507   2123987.976   -868812.219
10 0 59510  26382.000000  0   -6490306.104   2310249.236     34139.561
10 0 59510  26502.000000  0   -6367284.592   2455000.670    936488.072
10 0 59510  26622.000000  0   -6130810.541   2553685.563   1822344.541
10 0 59510  26742.000000  0   -5785837.272   2602628.256   2676105.212
10 0 59510  26862.000000  0   -5339291.290   2599134.875   3482734.476
10 0 59510  26982.000000  0   -4799927.887   2541572.758   4228036.902
10 0 59510  27102.000000  0   -4178151.026   2429427.103   4898910.317
10 0 59510  27222.000000  0   -3485804.642   2263334.108   5483576.088
10 0 59510  27342.000000  0   -2735939.580   2045090.327   5971784.247
10 0 59510  27462.000000  0   -1942559.769   1777637.481   6354989.519
10 0 59510  27582.000000  0   -1120354.701   1465022.839   6626494.878
10 0 59510  27702.000000  0    -284424.284   1112336.772   6781561.047
10 0 59510  27822.000000  0     549998.184    725628.802   6817483.329
10 0 59510  27942.000000  0    1367822.600    311803.557   6733635.644
10 0 59510  28062.000000  0    2154373.519   -121501.798   6531480.720
10 0 59510  28182.000000  0    2895652.588   -566057.714   6214547.225
10 0 59510  28302.000000  0    3578588.917  -1013197.410   5788372.756
10 0 59510  28422.000000  0    4191273.014  -1453984.488   5260412.531
10 0 59510  28542.000000  0    4723168.828  -1879390.941   4639914.575
10 0 59510  28662.000000  0    5165301.650  -2280481.133   3937764.019
10 0 59510  28782.000000  0    5510418.843  -2648599.238   3166296.072
10 0 59510  28902.000000  0    5753116.734  -2975555.492   2339079.050
10 0 59510  29022.000000  0    5889930.791  -3253806.401   1470673.987
10 0 59510  29142.000000  0    5919389.134  -3476625.717    576374.142
10 0 59510  29262.000000  0    5842024.794  -3638260.233   -328072.125
10 0 59510  29382.000000  0    5660348.405  -3734067.168  -1226747.066
10 0 59510  29502.000000  0    5378779.459  -3760628.474  -2103853.551
10 0 59510  29622.000000  0    5003539.708  -3715839.744  -2943999.650
10 0 59510  29742.000000  0    4542512.099  -3598972.807  -3732473.672
10 0 59510  29862.000000  0    4005068.486  -3410709.609  -4455503.320
10 0 59510  29982.000000  0    3401871.476  -3153147.389  -5100494.179
10 0 59510  30102.000000  0    2744655.632  -2829774.812  -5656242.616
10 0 59510  30222.000000  0    2045994.807  -2445422.321  -6113120.210
10 0 59510  30342.000000  0    1319060.226  -2006187.857  -6463230.848
10 0 59510  30462.000000  0     577371.644  -1519336.682  -6700537.608
10 0 59510  30582.000000  0    -165451.871   -993179.580  -6820955.936
10 0 59510  30702.000000  0    -895937.090   -436932.206  -6822415.485
10 0 59510  30822.000000  0   -1600995.032    139442.922  -6704891.627
10 0 59510  30942.000000  0   -2268150.336    725410.569  -6470405.155
10 0 59510  31062.000000  0   -2885756.840   1310050.194  -6122991.128
10 0 59510  31182.000000  0   -3443197.569   1882254.405  -5668637.362
10 0 59510  31302.000000  0   -3931068.011   2430936.077  -5115192.840
10 0 59510  31422.000000  0   -4341339.304   2945241.642  -4472243.484
10 0 59510  31542.000000  0   -4667496.133   3414765.518  -3750955.843
10 0 59510  31662.000000  0   -4904647.034   3829761.828  -2963892.914
10 0 59510  31782.000000  0   -5049605.499   4181349.499  -2124801.647
10 0 59510  31902.000000  0   -5100938.249   4461704.560  -1248375.652
10 0 59510  32022.000000  0   -5058980.121   4664235.989   -349996.835
10 0 59510  32142.000000  0   -4925813.004   4783739.828    554539.714
10 0 59510  32262.000000  0   -4705208.951   4816526.723   1449311.739
99
